start=new Date('2022-06-05T00:00:00.000Z').valueOf();
sats=[{"REV_AT_EPOCH":"5728","ELEMENT_SET_NO":"999","MEAN_MOTION":"15.05945203","PERIOD":"95.621","MEAN_MOTION_DDOT":"0.0000000000000","OBJECT_NAME":"STARLINK-2756","EPHEMERIS_TYPE":"0","MEAN_MOTION_DOT":"-0.00053193","NORAD_CAT_ID":"48683","TIME_SYSTEM":"UTC","SITE":"AFETR","RCS_SIZE":"LARGE","COUNTRY_CODE":"US","FILE":"3480894","TLE_LINE2":"2 48683  53.0551 120.6181 0001780  49.5380 310.5764 15.05945203 57286","OBJECT_TYPE":"PAYLOAD","RA_OF_ASC_NODE":"120.6181","ECCENTRICITY":"0.00017800","ARG_OF_PERICENTER":"49.5380","INCLINATION":"53.0551","MEAN_ELEMENT_THEORY":"SGP4","PERIAPSIS":"547.375","LAUNCH_DATE":"2021-05-26","BSTAR":"-0.00362320000000","DECAY_DATE":null,"EPOCH":"2022-06-04T11:58:57.685728","SEMIMAJOR_AXIS":"6926.743","CENTER_NAME":"EARTH","TLE_LINE1":"1 48683U 21044AX  22155.49927877 -.00053193  00000-0 -36232-2 0  9999","GP_ID":"205350987","REF_FRAME":"TEME","OBJECT_ID":"2021-044AX","APOAPSIS":"549.841","MEAN_ANOMALY":"310.5764","CLASSIFICATION_TYPE":"U"},{"RCS_SIZE":"LARGE","SITE":"AFETR","RA_OF_ASC_NODE":"134.0654","OBJECT_TYPE":"PAYLOAD","TLE_LINE2":"2 48684  53.0535 134.0654 0001832  52.2584 307.8570 15.05632479 57134","COUNTRY_CODE":"US","FILE":"3481313","PERIOD":"95.641","MEAN_MOTION":"15.05632479","MEAN_MOTION_DDOT":"0.0000000000000","OBJECT_NAME":"STARLINK-2741","ELEMENT_SET_NO":"999","REV_AT_EPOCH":"5713","TIME_SYSTEM":"UTC","NORAD_CAT_ID":"48684","MEAN_MOTION_DOT":"0.00143607","EPHEMERIS_TYPE":"0","REF_FRAME":"TEME","GP_ID":"205386433","CLASSIFICATION_TYPE":"U","MEAN_ANOMALY":"307.8570","APOAPSIS":"550.836","OBJECT_ID":"2021-044AY","BSTAR":"0.00966300000000","LAUNCH_DATE":"2021-05-26","PERIAPSIS":"548.298","MEAN_ELEMENT_THEORY":"SGP4","ARG_OF_PERICENTER":"52.2584","INCLINATION":"53.0535","ECCENTRICITY":"0.00018320","TLE_LINE1":"1 48684U 21044AY  22155.92029357  .00143607  00000-0  96630-2 0  9990","CENTER_NAME":"EARTH","SEMIMAJOR_AXIS":"6927.702","EPOCH":"2022-06-04T22:05:13.364448","DECAY_DATE":null},{"DECAY_DATE":null,"EPOCH":"2022-06-04T08:06:01.911168","SEMIMAJOR_AXIS":"6925.342","CENTER_NAME":"EARTH","TLE_LINE1":"1 48685U 21044AZ  22155.33752212  .00000480  00000-0  51109-4 0  9994","ECCENTRICITY":"0.00017100","ARG_OF_PERICENTER":"71.7549","INCLINATION":"53.0557","MEAN_ELEMENT_THEORY":"SGP4","PERIAPSIS":"546.023","LAUNCH_DATE":"2021-05-26","BSTAR":"0.00005110900000","OBJECT_ID":"2021-044AZ","APOAPSIS":"548.392","MEAN_ANOMALY":"288.3626","CLASSIFICATION_TYPE":"U","GP_ID":"205350487","REF_FRAME":"TEME","EPHEMERIS_TYPE":"0","MEAN_MOTION_DOT":"0.00000480","NORAD_CAT_ID":"48685","TIME_SYSTEM":"UTC","REV_AT_EPOCH":"5726","ELEMENT_SET_NO":"999","PERIOD":"95.592","MEAN_MOTION_DDOT":"0.0000000000000","OBJECT_NAME":"STARLINK-2751","MEAN_MOTION":"15.06402002","COUNTRY_CODE":"US","FILE":"3480894","TLE_LINE2":"2 48685  53.0557 121.3737 0001710  71.7549 288.3626 15.06402002 57269","OBJECT_TYPE":"PAYLOAD","RA_OF_ASC_NODE":"121.3737","SITE":"AFETR","RCS_SIZE":"LARGE"},{"MEAN_MOTION_DDOT":"0.0000000000000","PERIOD":"95.748","OBJECT_NAME":"STARLINK-2629","MEAN_MOTION":"15.03955492","ELEMENT_SET_NO":"999","REV_AT_EPOCH":"5718","NORAD_CAT_ID":"48686","TIME_SYSTEM":"UTC","MEAN_MOTION_DOT":"0.00000871","EPHEMERIS_TYPE":"0","RCS_SIZE":"LARGE","SITE":"AFETR","RA_OF_ASC_NODE":"126.5932","TLE_LINE2":"2 48686  53.0556 126.5932 0002247  49.3274 310.7909 15.03955492 57183","OBJECT_TYPE":"PAYLOAD","COUNTRY_CODE":"US","FILE":"3480894","PERIAPSIS":"553.158","BSTAR":"0.00008217300000","LAUNCH_DATE":"2021-05-26","ARG_OF_PERICENTER":"49.3274","INCLINATION":"53.0556","ECCENTRICITY":"0.00022470","MEAN_ELEMENT_THEORY":"SGP4","TLE_LINE1":"1 48686U 21044BA  22155.32464389  .00000871  00000-0  82173-4 0  9998","EPOCH":"2022-06-04T07:47:29.232096","DECAY_DATE":null,"CENTER_NAME":"EARTH","SEMIMAJOR_AXIS":"6932.851","GP_ID":"205350237","REF_FRAME":"TEME","APOAPSIS":"556.274","CLASSIFICATION_TYPE":"U","MEAN_ANOMALY":"310.7909","OBJECT_ID":"2021-044BA"},{"INCLINATION":"53.0554","ARG_OF_PERICENTER":"63.3636","ECCENTRICITY":"0.00019180","MEAN_ELEMENT_THEORY":"SGP4","PERIAPSIS":"545.898","BSTAR":"0.00000048844000","LAUNCH_DATE":"2021-05-26","EPOCH":"2022-06-04T07:21:34.352640","DECAY_DATE":null,"CENTER_NAME":"EARTH","SEMIMAJOR_AXIS":"6925.361","TLE_LINE1":"1 48687U 21044BB  22155.30664760 -.00000274  00000-0  48844-6 0  9999","GP_ID":"205351488","REF_FRAME":"TEME","OBJECT_ID":"2021-044BB","APOAPSIS":"548.555","CLASSIFICATION_TYPE":"U","MEAN_ANOMALY":"296.7550","ELEMENT_SET_NO":"999","REV_AT_EPOCH":"5732","MEAN_MOTION_DDOT":"0.0000000000000","PERIOD":"95.592","OBJECT_NAME":"STARLINK-2627","MEAN_MOTION":"15.06395790","MEAN_MOTION_DOT":"-0.00000274","EPHEMERIS_TYPE":"0","NORAD_CAT_ID":"48687","TIME_SYSTEM":"UTC","SITE":"AFETR","RCS_SIZE":"LARGE","TLE_LINE2":"2 48687  53.0554 116.4748 0001918  63.3636 296.7550 15.06395790 57320","OBJECT_TYPE":"PAYLOAD","FILE":"3480894","COUNTRY_CODE":"US","RA_OF_ASC_NODE":"116.4748"},{"RCS_SIZE":"LARGE","SITE":"AFETR","RA_OF_ASC_NODE":"116.4431","FILE":"3480894","COUNTRY_CODE":"US","TLE_LINE2":"2 48688  53.0556 116.4431 0001638  68.5252 291.5912 15.06400920 57329","OBJECT_TYPE":"PAYLOAD","PERIOD":"95.592","MEAN_MOTION":"15.06400920","MEAN_MOTION_DDOT":"0.0000000000000","OBJECT_NAME":"STARLINK-2742","REV_AT_EPOCH":"5732","ELEMENT_SET_NO":"999","NORAD_CAT_ID":"48688","TIME_SYSTEM":"UTC","EPHEMERIS_TYPE":"0","MEAN_MOTION_DOT":"0.00001449","GP_ID":"205351238","REF_FRAME":"TEME","APOAPSIS":"548.345","MEAN_ANOMALY":"291.5912","CLASSIFICATION_TYPE":"U","OBJECT_ID":"2021-044BC","PERIAPSIS":"546.076","LAUNCH_DATE":"2021-05-26","BSTAR":"0.00011613000000","ECCENTRICITY":"0.00016380","ARG_OF_PERICENTER":"68.5252","INCLINATION":"53.0556","MEAN_ELEMENT_THEORY":"SGP4","TLE_LINE1":"1 48688U 21044BC  22155.31032335  .00001449  00000-0  11613-3 0  9993","DECAY_DATE":null,"EPOCH":"2022-06-04T07:26:51.937440","SEMIMAJOR_AXIS":"6925.346","CENTER_NAME":"EARTH"},{"ELEMENT_SET_NO":"999","REV_AT_EPOCH":"5725","MEAN_MOTION":"15.06401018","PERIOD":"95.592","MEAN_MOTION_DDOT":"0.0000000000000","OBJECT_NAME":"STARLINK-2617","MEAN_MOTION_DOT":"0.00000457","EPHEMERIS_TYPE":"0","TIME_SYSTEM":"UTC","NORAD_CAT_ID":"48689","SITE":"AFETR","RCS_SIZE":"LARGE","OBJECT_TYPE":"PAYLOAD","TLE_LINE2":"2 48689  53.0573 121.4002 0001982  56.4638 303.6540 15.06401018 57258","FILE":"3480894","COUNTRY_CODE":"US","RA_OF_ASC_NODE":"121.4002","MEAN_ELEMENT_THEORY":"SGP4","INCLINATION":"53.0573","ARG_OF_PERICENTER":"56.4638","ECCENTRICITY":"0.00019820","BSTAR":"0.00004959800000","LAUNCH_DATE":"2021-05-26","PERIAPSIS":"545.838","CENTER_NAME":"EARTH","SEMIMAJOR_AXIS":"6925.345","EPOCH":"2022-06-04T07:34:10.038144","DECAY_DATE":null,"TLE_LINE1":"1 48689U 21044BD  22155.31539396  .00000457  00000-0  49598-4 0  9995","REF_FRAME":"TEME","GP_ID":"205349987","OBJECT_ID":"2021-044BD","CLASSIFICATION_TYPE":"U","MEAN_ANOMALY":"303.6540","APOAPSIS":"548.583"},{"RA_OF_ASC_NODE":"130.8056","COUNTRY_CODE":"US","FILE":"3481044","TLE_LINE2":"2 48690  53.0557 130.8056 0001959  61.6143 298.5043 15.06407591 58037","OBJECT_TYPE":"PAYLOAD","RCS_SIZE":"LARGE","SITE":"AFETR","NORAD_CAT_ID":"48690","TIME_SYSTEM":"UTC","EPHEMERIS_TYPE":"0","MEAN_MOTION_DOT":"0.00001149","MEAN_MOTION_DDOT":"0.0000000000000","PERIOD":"95.592","OBJECT_NAME":"STARLINK-2740","MEAN_MOTION":"15.06407591","REV_AT_EPOCH":"5803","ELEMENT_SET_NO":"999","APOAPSIS":"548.547","MEAN_ANOMALY":"298.5043","CLASSIFICATION_TYPE":"U","OBJECT_ID":"2021-044BE","GP_ID":"205357478","REF_FRAME":"TEME","TLE_LINE1":"1 48690U 21044BE  22155.45455043  .00001149  00000-0  96037-4 0  9997","DECAY_DATE":null,"EPOCH":"2022-06-04T10:54:33.157152","SEMIMAJOR_AXIS":"6925.325","CENTER_NAME":"EARTH","PERIAPSIS":"545.834","LAUNCH_DATE":"2021-05-26","BSTAR":"0.00009603700000","ECCENTRICITY":"0.00019590","ARG_OF_PERICENTER":"61.6143","INCLINATION":"53.0557","MEAN_ELEMENT_THEORY":"SGP4"},{"REF_FRAME":"TEME","GP_ID":"205350988","OBJECT_ID":"2021-044BF","CLASSIFICATION_TYPE":"U","MEAN_ANOMALY":"304.3963","APOAPSIS":"548.580","MEAN_ELEMENT_THEORY":"SGP4","INCLINATION":"53.0577","ARG_OF_PERICENTER":"55.7211","ECCENTRICITY":"0.00019620","BSTAR":"0.00010071000000","LAUNCH_DATE":"2021-05-26","PERIAPSIS":"545.862","CENTER_NAME":"EARTH","SEMIMAJOR_AXIS":"6925.356","EPOCH":"2022-06-04T10:15:24.183936","DECAY_DATE":null,"TLE_LINE1":"1 48691U 21044BF  22155.42736324  .00001219  00000-0  10071-3 0  9990","SITE":"AFETR","RCS_SIZE":"LARGE","OBJECT_TYPE":"PAYLOAD","TLE_LINE2":"2 48691  53.0577 125.9277 0001962  55.7211 304.3963 15.06397608 57206","FILE":"3480894","COUNTRY_CODE":"US","RA_OF_ASC_NODE":"125.9277","ELEMENT_SET_NO":"999","REV_AT_EPOCH":"5720","MEAN_MOTION":"15.06397608","PERIOD":"95.592","MEAN_MOTION_DDOT":"0.0000000000000","OBJECT_NAME":"STARLINK-2750","MEAN_MOTION_DOT":"0.00001219","EPHEMERIS_TYPE":"0","TIME_SYSTEM":"UTC","NORAD_CAT_ID":"48691"},{"GP_ID":"205351739","REF_FRAME":"TEME","OBJECT_ID":"2021-044BG","APOAPSIS":"548.276","MEAN_ANOMALY":"298.4100","CLASSIFICATION_TYPE":"U","ECCENTRICITY":"0.00015590","INCLINATION":"53.0543","ARG_OF_PERICENTER":"61.7046","MEAN_ELEMENT_THEORY":"SGP4","PERIAPSIS":"546.117","LAUNCH_DATE":"2021-05-26","BSTAR":"0.00008429900000","DECAY_DATE":null,"EPOCH":"2022-06-04T05:07:34.353120","SEMIMAJOR_AXIS":"6925.332","CENTER_NAME":"EARTH","TLE_LINE1":"1 48692U 21044BG  22155.21359205  .00000974  00000-0  84299-4 0  9998","SITE":"AFETR","RCS_SIZE":"LARGE","FILE":"3480894","COUNTRY_CODE":"US","OBJECT_TYPE":"PAYLOAD","TLE_LINE2":"2 48692  53.0543 127.0082 0001559  61.7046 298.4100 15.06405544 57173","RA_OF_ASC_NODE":"127.0082","REV_AT_EPOCH":"5717","ELEMENT_SET_NO":"999","PERIOD":"95.592","MEAN_MOTION_DDOT":"0.0000000000000","OBJECT_NAME":"STARLINK-2752","MEAN_MOTION":"15.06405544","EPHEMERIS_TYPE":"0","MEAN_MOTION_DOT":"0.00000974","NORAD_CAT_ID":"48692","TIME_SYSTEM":"UTC"}];
